OBJECT_NAME,OBJECT_ID,EPOCH,MEAN_MOTION,ECCENTRICITY,INCLINATION,RA_OF_ASC_NODE,ARG_OF_PERICENTER,MEAN_ANOMALY,EPHEMERIS_TYPE,CLASSIFICATION_TYPE,NORAD_CAT_ID,ELEMENT_SET_NO,REV_AT_EPOCH,BSTAR,MEAN_MOTION_DOT,MEAN_MOTION_DDOT
D-STAR ONE (SPARROW),2018-111F,2026-05-16T13:58:11.988480,15.66324439,.00075047,97.6133,74.6406,101.6679,258.5423,0,U,43881,999,40641,.90074401E-3,.9399E-3,0
JILIN-1 09,2019-005B,2026-05-16T14:07:17.272704,15.20213045,.00024603,97.4725,231.8311,161.7327,198.3997,0,U,43943,999,40434,.16900925E-3,.3593E-4,0
JILIN-1 10,2019-005E,2026-05-16T13:50:04.389216,15.25352793,.0008888,97.4768,235.3940,40.2124,319.9770,0,U,43946,999,40449,.18201678E-3,.4521E-4,0
EGYPTSAT-A (MISRSAT-A),2019-008A,2026-05-16T14:36:25.636320,14.72267188,.00013079,98.0059,201.8347,80.1045,280.0310,0,U,44047,999,38859,.62826008E-4,.347E-5,0
EMISAT,2019-018A,2026-05-16T14:37:26.971680,14.43672013,.00175825,98.4669,195.5788,316.0941,43.8851,0,U,44078,999,37550,.11573807E-3,.349E-5,0
JILIN-1 GAOFEN 3A,2019-032C,2026-05-16T11:10:44.040000,15.31899707,.00033956,44.9735,171.4179,124.9364,235.1840,0,U,44312,999,38297,.24816703E-3,.7491E-4,0
WT 1B,2019-032G,2026-05-16T14:22:44.016384,15.26539807,.00077168,44.9724,233.2718,65.1360,295.0324,0,U,44316,999,38225,.28220009E-3,.7231E-4,0
PROX-1,2019-036A,2026-05-16T14:03:43.497504,14.89815878,.00067736,23.9961,325.2131,27.9197,332.1665,0,U,44339,999,36875,.10439898E-2,.10557E-3,0
NPSAT1,2019-036B,2026-05-16T00:53:54.126528,14.74261394,.00078149,23.9987,67.0902,205.4543,154.5569,0,U,44340,999,36774,.50457206E-3,.3659E-4,0
FORMOSAT 7-3,2019-036E,2026-05-16T09:25:08.163840,15.09543977,.00004135,23.9997,37.3246,258.4037,101.6421,0,U,44343,999,37843,.18520178E-3,.3394E-4,0
FORMOSAT 7-1,2019-036L,2026-05-16T15:22:01.391232,14.96367035,.00008576,23.9974,245.0527,142.1158,217.9403,0,U,44349,999,37992,.12009831E-3,.1695E-4,0
FORMOSAT 7-4,2019-036M,2026-05-15T19:05:55.240800,14.96358378,.00010918,23.9989,312.8481,157.0623,202.9927,0,U,44350,999,37921,.12401634E-3,.174E-4,0
FORMOSAT 7-2,2019-036N,2026-05-16T06:50:17.526912,14.96357354,.00006288,23.9990,3.8639,158.0326,202.0201,0,U,44351,999,37880,.13267787E-3,.1841E-4,0
FORMOSAT 7-6,2019-036Q,2026-05-16T10:02:12.944832,14.96367746,.00014611,23.9962,183.7837,91.5380,268.5288,0,U,44353,999,37705,.10907972E-3,.1568E-4,0
FORMOSAT 7-5,2019-036V,2026-05-16T06:17:32.876448,14.96366909,.00005723,23.9975,123.5832,138.2665,221.7879,0,U,44358,999,37756,.11849189E-3,.1676E-4,0
METEOR-M2 2,2019-038A,2026-05-16T13:31:30.618048,14.24357678,.00023475,98.9131,123.3844,95.8148,264.3298,0,U,44387,999,35679,.12710008E-3,.248E-5,0
COSMOS 2535,2019-039A,2026-05-16T13:15:30.534336,14.91873744,.00072358,97.5782,165.9254,328.0115,32.0664,0,U,44421,999,37192,.82700025E-4,.782E-5,0
GLOBAL-4,2019-054E,2026-05-16T12:02:06.906048,15.61263368,.00038268,45.0077,58.7882,137.6677,222.4515,0,U,44499,999,37540,.51266205E-3,.44444E-3,0
ZY-1 02D,2019-059A,2026-05-16T15:10:50.738016,14.35450018,.00011061,98.3209,199.2315,155.6574,204.4665,0,U,44528,999,34981,.1216493E-3,.308E-5,0
TAURUS-1 (JINNIUZUO 1),2019-059C,2026-05-16T13:32:50.124192,14.71729867,.00092919,98.6384,299.4445,58.2668,301.9442,0,U,44530,999,35399,.69259761E-3,.4269E-4,0
ZHUHAI-1 03B,2019-060C,2026-05-16T14:43:52.852224,15.52256394,.00095886,97.5494,292.7279,78.0847,282.1479,0,U,44536,999,37142,.4453461E-3,.27039E-3,0
ZHUHAI-1 03C,2019-060D,2026-05-16T10:04:59.104128,15.96715124,.0005561,97.5437,305.3139,307.4955,52.6359,0,U,44537,999,37218,.75032E-3,.317447E-2,0
ZHUHAI-1 03D,2019-060E,2026-05-16T13:34:19.888608,15.47882040,.00080126,97.5356,285.0769,65.1001,295.1081,0,U,44538,999,37118,.57835337E-3,.30115E-3,0
ZHUHAI-1 03E,2019-060F,2026-05-16T14:38:32.383392,15.39974097,.00071481,97.5572,285.4974,131.2789,228.9073,0,U,44539,999,37090,.3790999E-3,.15049E-3,0
ATLAS 5 CENTAUR DEB,2018-079BG,2026-05-16T03:26:54.838464,1.77432698,.47291226,13.5906,41.9007,294.1026,24.2222,0,U,44694,999,4599,0,-.59E-6,0
GAOFEN-7,2019-072A,2026-05-16T15:07:07.971168,15.21338984,.0017674,97.2446,199.2791,142.3276,217.9202,0,U,44703,999,36284,.13798477E-3,.3035E-4,0
JILIN-1 GAOFEN 2A,2019-075A,2026-05-16T14:20:32.296128,15.38403017,.00065979,97.4970,219.6721,182.9207,177.2000,0,U,44777,999,36002,.34152176E-3,.12864E-3,0
NINGXIA-1 1,2019-076A,2026-05-16T14:44:35.128608,14.02035688,.00110086,45.0068,320.9451,5.4929,354.6024,0,U,44779,999,33342,.36915694E-4,-.73E-6,0
NINGXIA-1 5,2019-076E,2026-05-16T15:05:16.864224,14.02082963,.00109942,45.0064,320.2351,355.2961,4.7768,0,U,44783,999,33334,-.33494035E-4,-.181E-5,0
KL-ALPHA A,2019-077A,2026-05-16T12:55:59.004768,13.56039268,.00106143,88.9266,226.0222,190.3481,169.7456,0,U,44785,999,32144,.88693677E-4,.74E-6,0
CARTOSAT-3,2019-081A,2026-05-16T14:36:30.575808,15.19214193,.00110098,97.4330,198.9787,260.0865,99.9127,0,U,44804,999,35867,.15285823E-3,.3154E-4,0
JILIN-1 GAOFEN 2B,2019-086A,2026-05-16T14:59:32.210304,15.20326238,.00156217,97.4893,208.8209,73.3244,286.9704,0,U,44836,999,35569,.22987147E-3,.4944E-4,0
TIANQIN 1 (CAS-6),2019-093A,2026-05-16T13:43:48.584640,14.95264364,.00119471,97.7800,220.6452,153.1888,206.9953,0,U,44879,999,34732,.15583295E-3,.1659E-4,0
ETRSS-1,2019-093B,2026-05-16T14:06:20.808576,14.95675065,.00122483,97.7822,221.0926,152.0515,208.1367,0,U,44880,999,34733,.24200253E-3,.2637E-4,0
TIANYAN 01,2019-093C,2026-05-16T14:37:07.619808,14.86460779,.00133149,97.7543,209.6105,184.8260,175.2830,0,U,44881,999,34672,.25212257E-4,.17E-5,0
TIANYAN 02,2019-093D,2026-05-16T14:31:12.143424,15.04800659,.00150258,97.7926,231.1052,128.7128,231.5444,0,U,44882,999,34786,.44299486E-3,.6206E-4,0
CBERS 4A,2019-093E,2026-05-16T14:50:09.195072,14.81652105,.00006124,97.7514,204.8675,330.6227,29.4951,0,U,44883,999,34640,.12273603E-3,.915E-5,0
WEILAI 1R,2019-093F,2026-05-16T15:29:18.677184,15.00347519,.00157262,97.7839,226.4970,133.2921,226.9617,0,U,44884,999,34769,.30302707E-3,.3751E-4,0
FLORIPASAT-1,2019-093G,2026-05-16T13:12:20.360160,15.03498373,.00121324,97.7893,230.5597,172.8627,187.2773,0,U,44885,999,34789,.33018641E-3,.4446E-4,0
SHUNTIAN,2019-093H,2026-05-16T13:13:40.895328,14.94988273,.00120533,97.8010,224.8792,162.9645,197.1982,0,U,44886,999,34745,.10965188E-3,.1142E-4,0
2019-093L,2019-093L,2026-05-16T12:24:26.461152,14.94350814,.0012795,97.7568,215.1559,149.6439,210.5525,0,U,44889,999,34707,.20668639E-3,.2169E-4,0
ELEKTRO-L 3,2019-095A,2026-05-16T13:03:39.812256,1.00271002,.00009858,0.1741,79.7127,323.2658,103.1483,0,U,44903,999,2339,0,-.86E-6,0
GONETS-M 14,2019-096A,2026-05-16T13:45:36.644256,12.42868855,.00122649,82.5199,104.2389,218.9079,141.1119,0,U,44905,999,28975,-.46080948E-3,-.54E-6,0
GONETS-M 15,2019-096B,2026-05-16T14:28:00.032160,12.42869993,.0013933,82.5218,104.6771,244.0128,115.9517,0,U,44906,999,28972,-.77641086E-3,-.98E-6,0
GONETS-M 16,2019-096C,2026-05-16T15:06:32.520384,12.42891168,.00097946,82.5164,103.6278,291.3004,68.7030,0,U,44907,999,28971,.17847754E-3,.35E-6,0
RS-44 & BREEZE-KM R/B,2019-096E,2026-05-16T13:49:40.710432,12.79748285,.02167637,82.5236,0.7142,218.0812,140.4801,0,U,44909,999,29830,.10170541E-3,.36E-6,0
JILIN-1 KUANFU 01,2020-003A,2026-05-16T14:57:13.135680,15.10532527,.00110226,97.5037,211.1975,57.3370,302.8922,0,U,45016,999,35056,.1295203E-3,.2074E-4,0
XINGYUN-2 01,2020-028A,2026-05-16T13:39:09.797760,15.11665707,.00080448,97.4862,129.6012,323.5737,36.4945,0,U,45602,999,33006,.94655985E-4,.1547E-4,0
XINGYUN-2 02,2020-028B,2026-05-16T14:35:44.419200,15.11400965,.00119384,97.5079,143.1574,28.7468,331.4418,0,U,45603,999,33006,.93724877E-4,.1521E-4,0
HAIYANG-1D,2020-036A,2026-05-16T15:32:43.014048,14.34162210,.00015578,98.4544,79.0152,229.3476,130.7574,0,U,45721,999,31045,.78900932E-4,.178E-5,0
M2 PATHFINDER,2020-037E,2026-05-16T14:09:55.592928,15.04530187,.00099372,97.8163,327.4690,257.9689,102.0423,0,U,45727,999,32074,.10173673E-3,.1362E-4,0
GAOFEN DUOMO (GFDM),2020-042A,2026-05-16T15:13:54.928128,14.76832221,.00111404,97.7770,197.6656,167.3621,192.7871,0,U,45856,999,31635,.50888493E-4,.308E-5,0
ZIYUAN 3-03 (ZY 3-03),2020-051A,2026-05-16T14:44:19.284576,15.21495050,.00070372,97.2854,205.3567,67.8569,292.3413,0,U,45939,999,32254,.17007733E-3,.3761E-4,0
NEMO-HD,2020-061F,2026-05-16T15:17:56.071392,15.43918307,.00025418,97.1939,198.9213,118.8348,241.3156,0,U,46277,999,31711,.20078462E-3,.9041E-4,0
3CAT-5A,2020-061W,2026-05-16T07:44:04.811424,15.45059408,.00013834,97.2429,199.2736,171.3453,188.7820,0,U,46292,999,31610,.31009525E-3,.1457E-3,0
3CAT-5B,2020-061X,2026-05-16T11:06:09.285408,15.46349882,.00015841,97.2424,200.3351,178.1926,181.9330,0,U,46293,999,31615,.31763882E-3,.15603E-3,0
NAPA-1,2020-061BA,2026-05-16T14:14:47.645664,15.63960642,.00018464,97.2490,209.8331,141.0080,219.1312,0,U,46320,999,31679,.57183464E-3,.53963E-3,0
JILIN-1 GAOFEN 3E,2020-065D,2026-05-16T13:39:19.790784,15.59999644,.00098305,97.2289,188.5304,270.3698,89.6432,0,U,46457,999,31482,.60518342E-3,.49092E-3,0
JILIN-1 GAOFEN 3F,2020-065E,2026-05-16T14:36:05.522400,15.57776282,.00114204,97.2242,186.0439,258.4611,101.5364,0,U,46458,999,31478,.58006407E-3,.43269E-3,0
JILIN-1 GAOFEN 3G,2020-065F,2026-05-16T15:05:59.155296,15.65876726,.00125189,97.2316,192.4000,160.1528,200.0222,0,U,46459,999,31499,.68423545E-3,.70085E-3,0
JILIN-1 GAOFEN 3H,2020-065G,2026-05-16T14:32:21.128640,15.63363943,.00089633,97.2258,188.8700,109.0215,251.2015,0,U,46460,999,31494,.64092552E-3,.59247E-3,0
HAIYANG-2C,2020-066A,2026-05-16T13:45:03.298176,13.83372273,.00100511,65.9972,293.9962,240.0433,119.9638,0,U,46469,999,28512,.12786775E-3,.6E-6,0
HJ-2A,2020-067A,2026-05-16T14:04:16.503168,14.76569101,.0003945,97.8834,215.7030,30.7774,329.3667,0,U,46478,999,30359,.10471583E-3,.681E-5,0
HJ-2B,2020-067B,2026-05-16T13:18:53.335008,14.76512702,.00013125,97.8896,216.6705,75.9811,284.1545,0,U,46479,999,30359,.1496692E-4,.55E-6,0
